NORAD_CAT_ID,OBJECT_NAME,OBJECT_TYPE,EPOCH,MEAN_MOTION,ECCENTRICITY,INCLINATION,RA_OF_ASC_NODE,ARG_OF_PERICENTER,MEAN_ANOMALY,BSTAR,MEAN_MOTION_DOT,MEAN_MOTION_DDOT,TLE_LINE0,TLE_LINE1,TLE_LINE2,SEMIMAJOR_AXIS,PERIOD,APOGEE,PERIGEE,DECAYED
49160.0,STARLINK-3095,PAYLOAD,2024-03-20 22:31:32,14.98326889,0.0002962,69.999,306.6652,266.0968,93.9852,-8.4291e-05,-1.099e-05,0.0,0 STARLINK-3095,1 49160U 21082AG  24080.93857221 -.00001099  00000-0 -84291-4 0  9993,2 49160  69.9990 306.6652 0002962 266.0968  93.9852 14.98326889139386,6950.203,96.107,574.126,570.009,0.0
49160.0,STARLINK-3095,PAYLOAD,2024-03-21 14:32:53,14.98330756,0.0003192,69.9981,304.9812,267.4015,92.6779,-6.5236e-05,-8.71e-06,0.0,0 STARLINK-3095,1 49160U 21082AG  24081.60617074 -.00000871  00000-0 -65236-4 0  9993,2 49160  69.9981 304.9812 0003192 267.4015  92.6779 14.98330756139482,6950.191,96.107,574.274,569.837,0.0
49160.0,STARLINK-3095,PAYLOAD,2024-03-21 20:57:25,14.9833459,0.0003071,69.9982,304.308,266.3499,93.7309,1.5823e-05,9.6e-07,0.0,0 STARLINK-3095,1 49160U 21082AG  24081.87320650  .00000096  00000-0  15823-4 0  9997,2 49160  69.9982 304.3080 0003071 266.3499  93.7309 14.98334590139531,6950.179,96.107,574.178,569.909,0.0
49160.0,STARLINK-3095,PAYLOAD,2024-03-21 22:33:32,14.98337147,0.0002969,69.9982,304.1392,267.8995,92.1824,5.5983e-05,5.75e-06,0.0,0 STARLINK-3095,1 49160U 21082AG  24081.93996414  .00000575  00000-0  55983-4 0  9994,2 49160  69.9982 304.1392 0002969 267.8995  92.1824 14.98337147139533,6950.171,96.107,574.099,569.972,0.0
49160.0,STARLINK-3095,PAYLOAD,2024-03-22 00:09:40,14.98341678,0.0003074,69.9982,303.9717,266.1155,93.9652,8.0369e-05,8.66e-06,0.0,0 STARLINK-3095,1 49160U 21082AG  24082.00672048  .00000866  00000-0  80369-4 0  9996,2 49160  69.9982 303.9717 0003074 266.1155  93.9652 14.98341678139553,6950.157,96.106,574.158,569.885,0.0
49160.0,STARLINK-3095,PAYLOAD,2024-03-22 14:34:53,14.98330984,0.0002844,69.9991,302.4572,258.2474,101.8366,0.00026754,3.101e-05,0.0,0 STARLINK-3095,1 49160U 21082AG  24082.60756283  .00003101  00000-0  26754-3 0  9998,2 49160  69.9991 302.4572 0002844 258.2474 101.8366 14.98330984139634,6950.19,96.107,574.031,570.078,0.0
49160.0,STARLINK-3095,PAYLOAD,2024-03-22 20:59:25,14.98333653,0.0002849,70.0005,301.7848,256.4434,103.6408,0.00031913,3.717e-05,0.0,0 STARLINK-3095,1 49160U 21082AG  24082.87460526  .00003717  00000-0  31913-3 0  9995,2 49160  70.0005 301.7848 0002849 256.4434 103.6408 14.98333653139680,6950.182,96.107,574.027,570.066,0.0
49160.0,STARLINK-3095,PAYLOAD,2024-03-22 22:35:33,14.98333134,0.0002917,70.0002,301.6158,261.3777,98.7051,0.0002934,3.41e-05,0.0,0 STARLINK-3095,1 49160U 21082AG  24082.94136568  .00003410  00000-0  29340-3 0  9990,2 49160  70.0002 301.6158 0002917 261.3777  98.7051 14.98333134139683,6950.183,96.107,574.076,570.021,0.0
49160.0,STARLINK-3095,PAYLOAD,2024-03-23 21:01:26,14.98333628,0.0002837,70.0,299.2605,263.5942,96.4894,9.3613e-05,1.024e-05,0.0,0 STARLINK-3095,1 49160U 21082AG  24083.87600458  .00001024  00000-0  93613-4 0  9991,2 49160  70.0000 299.2605 0002837 263.5942  96.4894 14.98333628139834,6950.182,96.107,574.018,570.075,0.0
49160.0,STARLINK-3095,PAYLOAD,2024-03-23 22:37:34,14.98334453,0.0002812,70.0,299.092,265.621,94.4628,9.2516e-05,1.011e-05,0.0,0 STARLINK-3095,1 49160U 21082AG  24083.94276400  .00001011  00000-0  92516-4 0  9992,2 49160  70.0000 299.0920 0002812 265.6210  94.4628 14.98334453139836,6950.179,96.107,573.999,570.09,0.0
49160.0,STARLINK-3095,PAYLOAD,2024-03-24 14:38:55,14.98342686,0.0002383,69.999,297.4085,260.0876,100.0014,1.6721e-05,1.07e-06,0.0,0 STARLINK-3095,1 49160U 21082AG  24084.61036095  .00000107  00000-0  16721-4 0  9990,2 49160  69.9990 297.4085 0002383 260.0876 100.0014 14.98342686139936,6950.154,96.106,573.675,570.362,0.0
49160.0,STARLINK-3095,PAYLOAD,2024-03-24 21:03:27,14.98345508,0.0002844,69.9985,296.7342,263.8964,96.1871,0.00016617,1.891e-05,0.0,0 STARLINK-3095,1 49160U 21082AG  24084.87739661  .00001891  00000-0  16617-3 0  9991,2 49160  69.9985 296.7342 0002844 263.8964  96.1871 14.98345508139986,6950.145,96.106,573.987,570.033,0.0
49160.0,STARLINK-3095,PAYLOAD,2024-03-24 22:39:35,14.98346644,0.0002784,69.9987,296.5663,263.2006,96.8836,0.00016472,1.874e-05,0.0,0 STARLINK-3095,1 49160U 21082AG  24084.94415537  .00001874  00000-0  16472-3 0  9992,2 49160  69.9987 296.5663 0002784 263.2006  96.8836 14.98346644139986,6950.141,96.106,573.941,570.072,0.0
49160.0,STARLINK-3095,PAYLOAD,2024-03-25 13:05:13,14.98050621,0.0003875,69.9983,295.0516,237.2788,122.7998,-0.0028555,-0.00033759,0.0,0 STARLINK-3095,1 49160U 21082AG  24085.54529621 -.00033759  00000-0 -28555-2 0  9992,2 49160  69.9983 295.0516 0003875 237.2788 122.7998 14.98050621140081,6951.057,96.125,575.616,570.228,0.0
49160.0,STARLINK-3095,PAYLOAD,2024-03-25 14:38:40,15.00233274,0.001082,69.9975,294.8766,234.0655,125.9502,0.021433,0.0027977,0.0,0 STARLINK-3095,1 49160U 21082AG  24085.61018726  .00279770  00000-0  21433-1 0  9999,2 49160  69.9975 294.8766 0010820 234.0655 125.9502 15.00233274140090,6944.313,95.985,573.692,558.665,0.0
49160.0,STARLINK-3095,PAYLOAD,2024-03-26 06:00:02,14.98339893,0.0003052,69.9991,293.2722,273.6863,288.1555,-0.0027706,-0.00033005,0.0,0 STARLINK-3095,1 49160U 21082AG  24086.25002315 -.00033005  00000-0 -27706-2 0  9998,2 49160  69.9991 293.2722 0003052 273.6863 288.1555 14.98339893140193,6950.162,96.106,574.148,569.906,0.0
49160.0,STARLINK-3095,PAYLOAD,2024-03-26 08:00:01,14.98312045,0.0003049,69.9992,293.0621,272.0822,19.0761,0.0019574,0.00023329,0.0,0 STARLINK-3095,1 49160U 21082AG  24086.33334491  .00023329  00000-0  19574-2 0  9990,2 49160  69.9992 293.0621 0003049 272.0822  19.0761 14.98312045  5846,6950.248,96.108,574.233,569.994,0.0
49160.0,STARLINK-3095,PAYLOAD,2024-03-26 21:07:28,14.98363442,0.000263,69.9985,291.6834,246.2243,113.864,0.00050949,5.997e-05,0.0,0 STARLINK-3095,1 49160U 21082AG  24086.88019584  .00005997  00000-0  50949-3 0  9996,2 49160  69.9985 291.6834 0002630 246.2243 113.8640 14.98363442140287,6950.089,96.105,573.782,570.127,0.0
49160.0,STARLINK-3095,PAYLOAD,2024-03-26 22:43:37,14.98376649,0.0002222,69.9984,291.5158,271.5777,88.5128,0.00066571,7.868e-05,0.0,0 STARLINK-3095,1 49160U 21082AG  24086.94695630  .00007868  00000-0  66571-3 0  9992,2 49160  69.9984 291.5158 0002222 271.5777  88.5128 14.98376649140286,6950.049,96.104,573.458,570.369,0.0
49160.0,STARLINK-3095,PAYLOAD,2024-03-27 06:44:18,14.98355202,0.0002029,70.0021,290.6704,318.7354,41.3652,0.00052812,6.218e-05,0.0,0 STARLINK-3095,1 49160U 21082AG  24087.28077318  .00006218  00000-0  52812-3 0  9998,2 49160  70.0021 290.6704 0002029 318.7354  41.3652 14.98355202140346,6950.115,96.105,573.39,570.57,0.0
49160.0,STARLINK-3095,PAYLOAD,2024-03-27 14:44:58,14.98317467,0.0002921,69.9972,289.8296,271.8282,88.2542,-6.7936e-07,-1.01e-06,0.0,0 STARLINK-3095,1 49160U 21082AG  24087.61456787 -.00000101  00000-0 -67936-6 0  9999,2 49160  69.9972 289.8296 0002921 271.8282  88.2542 14.98317467140387,6950.232,96.108,574.127,570.066,0.0
49160.0,STARLINK-3095,PAYLOAD,2024-03-27 19:33:22,14.98320293,0.0002917,69.9989,289.3268,266.0974,93.9852,1.6086e-05,9.9e-07,0.0,0 STARLINK-3095,1 49160U 21082AG  24087.81484628  .00000099  00000-0  16086-4 0  9998,2 49160  69.9989 289.3268 0002917 266.0974  93.9852 14.98320293140421,6950.223,96.108,574.115,570.061,0.0
49160.0,STARLINK-3095,PAYLOAD,2024-03-27 21:09:30,14.98321093,0.0002926,69.9985,289.158,266.9891,93.0933,2.3553e-05,1.88e-06,0.0,0 STARLINK-3095,1 49160U 21082AG  24087.88160609  .00000188  00000-0  23553-4 0  9991,2 49160  69.9985 289.1580 0002926 266.9891  93.0933 14.98321093140429,6950.22,96.108,574.119,570.052,0.0
49160.0,STARLINK-3095,PAYLOAD,2024-03-28 06:46:19,14.98316089,0.0003172,69.9985,288.1482,273.9037,86.1759,0.00011909,1.328e-05,0.0,0 STARLINK-3095,1 49160U 21082AG  24088.28216783  .00001328  00000-0  11909-3 0  9999,2 49160  69.9985 288.1482 0003172 273.9037  86.1759 14.98316089140487,6950.236,96.108,574.306,569.896,0.0
49160.0,STARLINK-3095,PAYLOAD,2024-03-28 22:47:40,14.98322978,0.0002853,69.9985,286.4647,265.5514,94.5319,1.1223e-06,-8e-07,0.0,0 STARLINK-3095,1 49160U 21082AG  24088.94976976 -.00000080  00000-0  11223-5 0  9995,2 49160  69.9985 286.4647 0002853 265.5514  94.5319 14.98322978140583,6950.215,96.107,574.063,570.097,0.0
49160.0,STARLINK-3095,PAYLOAD,2024-03-29 06:00:02,14.98332978,0.0002814,69.9996,285.7064,265.6264,273.579,-0.0017906,-0.00021394,0.0,0 STARLINK-3095,1 49160U 21082AG  24089.25002315 -.00021394  00000-0 -17906-2 0  9990,2 49160  69.9996 285.7064 0002814 265.6264 273.5790 14.98332978140640,6950.184,96.107,574.004,570.093,0.0
49160.0,STARLINK-3095,PAYLOAD,2024-03-29 14:00:01,14.98346171,0.0002851,70.0,284.8659,262.0707,274.5418,-0.00062155,-7.504e-05,0.0,0 STARLINK-3095,1 49160U 21082AG  24089.58334491 -.00007504  00000-0 -62155-3 0  9993,2 49160  70.0000 284.8659 0002851 262.0707 274.5418 14.98346171  5685,6950.143,96.106,573.989,570.026,0.0
49160.0,STARLINK-3095,PAYLOAD,2024-03-29 22:00:00,14.98320497,0.0002827,70.0,284.0253,269.7314,264.3823,0.0019252,0.00022948,0.0,0 STARLINK-3095,1 49160U 21082AG  24089.91667824  .00022948  00000-0  19252-2 0  9995,2 49160  70.0000 284.0253 0002827 269.7314 264.3823 14.98320497140745,6950.222,96.108,574.052,570.122,0.0
49160.0,STARLINK-3095,PAYLOAD,2024-03-30 13:14:53,14.98328404,0.0002706,69.9989,282.4242,265.9105,94.1745,0.00022375,2.578e-05,0.0,0 STARLINK-3095,1 49160U 21082AG  24090.55200482  .00002578  00000-0  22375-3 0  9998,2 49160  69.9989 282.4242 0002706 265.9105  94.1745 14.98328404140827,6950.198,96.107,573.944,570.182,0.0
49160.0,STARLINK-3095,PAYLOAD,2024-03-30 21:15:33,14.98333868,0.0002716,69.9987,281.5825,266.2018,93.8831,0.00021024,2.417e-05,0.0,0 STARLINK-3095,1 49160U 21082AG  24090.88580394  .00002417  00000-0  21024-3 0  9999,2 49160  69.9987 281.5825 0002716 266.2018  93.8831 14.98333868140888,6950.181,96.107,573.934,570.158,0.0
